NIGCOMSAT 1R            
1 38014U 11077A   17055.21710146  .00000134  00000-0  00000+0 0  9999
2 38014   0.0118 113.1815 0000870 181.1344 340.6247  1.00272787 18936
FENGYUN 2F              
1 38049U 12002A   17054.82168969 -.00000367  00000-0  00000+0 0  9991
2 38049   1.4845  77.9715 0001911 152.5141 330.9975  1.00283641 18791
SES-4                   
1 38087U 12007A   17055.16956288 -.00000179  00000-0  00000+0 0  9996
2 38087   0.0119  82.1100 0002620 230.1418 240.9918  1.00270321 18390
BEIDOU G5               
1 38091U 12008A   17054.79887097  .00000047  00000-0  00000-0 0  9995
2 38091   2.0286  54.4987 0003682 233.1849 212.4338  1.00271585 18389
INTELSAT 22 (IS-22)     
1 38098U 12011A   17054.37347534 -.00000068  00000-0  00000-0 0  9991
2 38098   0.0255  21.8332 0002079 309.1501  28.9832  1.00271681 17734
APSTAR 7                
1 38107U 12013A   17054.95768703 -.00000112  00000-0  00000-0 0  9993
2 38107   0.0235  98.1849 0002697 242.6648 234.4293  1.00272379 18070
YAHSAT 1B               
1 38245U 12016A   17054.44136662  .00000117  00000-0  00000+0 0  9999
2 38245   0.0146 145.0317 0001593 201.7669  13.1753  1.00271661 17827
JCSAT-13                
1 38331U 12023A   17055.22699382 -.00000366  00000-0  00000+0 0  9990
2 38331   0.0168 129.6397 0002149 231.7553 358.6056  1.00271492 17483
VINASAT-2               
1 38332U 12023B   17054.28095102 -.00000339  00000-0  00000-0 0  9997
2 38332   0.0507 291.2487 0002546  71.5263  23.5403  1.00271025 12555
NIMIQ 6                 
1 38342U 12026A   17054.82552365 -.00000184  00000-0  00000+0 0  9997
2 38342   0.0565 288.6478 0002528  56.4738  14.8490  1.00271345 17503
CHINASAT 2A (ZX 2A)     
1 38352U 12028A   17055.46451458 -.00000303  00000-0  00000+0 0  9995
2 38352   0.0564 279.5360 0005266  64.8564  75.5910  1.00273630 17559
INTELSAT 19 (IS-19)     
1 38356U 12030A   17055.11061171 -.00000067  00000-0  00000+0 0  9990
2 38356   0.0144   1.5451 0002993 337.5169  20.9041  1.00271858 17421
ECHOSTAR 17             
1 38551U 12035A   17054.86986016 -.00000085  00000-0  00000+0 0  9997
2 38551   0.0059 162.4640 0002168 165.4158  32.0854  1.00271475 17038
METEOSAT-10 (MSG-3)     
1 38552U 12035B   17054.57358416 -.00000016  00000-0  00000-0 0  9998
2 38552   0.7053  45.9531 0000466 183.1476 130.8747  1.00267091 16792
SES-5                   
1 38652U 12036A   17054.89076052  .00000024  00000-0  00000-0 0  9996
2 38652   0.0451 275.6621 0001813  57.6243 146.3005  1.00272905 10416
TIANLIAN 1-03           
1 38730U 12040A   17054.54374584  .00000063  00000-0  00000-0 0  9994
2 38730   0.1486 268.7329 0001491 116.8890 334.3633  1.00276456 14615
INTELSAT 20 (IS-20)     
1 38740U 12043A   17054.38348699 -.00000034  00000-0  00000-0 0  9997
2 38740   0.0221 124.9779 0001178  63.1517 171.8467  1.00271097 16679
HYLAS 2                 
1 38741U 12043B   17054.48725891  .00000144  00000-0  00000-0 0  9993
2 38741   0.0487 287.5101 0001973  84.0852 348.3873  1.00273245 16675
INTELSAT 21 (IS-21)     
1 38749U 12045A   17054.73385790 -.00000295  00000-0  00000+0 0  9998
2 38749   0.0179 151.5934 0001863 188.6443  19.7550  1.00271444 16546
ASTRA 2F                
1 38778U 12051A   17054.49506375  .00000140  00000-0  00000-0 0  9993
2 38778   0.0728 240.4773 0002299  33.3769  86.0976  1.00270952  7078
GSAT-10                 
1 38779U 12051B   17054.34328966 -.00000175  00000-0  00000+0 0  9994
2 38779   0.0587 271.7976 0000970  96.7563 351.4257  1.00273440 16192
INTELSAT 23 (IS-23)     
1 38867U 12057A   17054.72002183 -.00000294  00000-0  00000-0 0  9993
2 38867   0.0496 277.3763 0001613  60.9156  21.6794  1.00273434 15904
BEIDOU G6               
1 38953U 12059A   17054.95423426 -.00000184  00000-0  10000-3 0  9995
2 38953   1.4235  79.8448 0005218 187.5742 314.1018  1.00269324 15950
LUCH 5B                 
1 38977U 12061A   17055.11878515 -.00000140  00000-0  00000+0 0  9993
2 38977   3.3171  75.3756 0003884 250.5928 214.6435  1.00270416 16089
YAMAL 300K              
1 38978U 12061B   17054.53950601  .00000061  00000-0  00000+0 0  9997
2 38978   0.0154 143.0908 0000595   8.2252  19.4320  1.00273984 15773
STAR ONE C3             
1 38991U 12062A   17055.42778731 -.00000259  00000-0  00000+0 0  9994
2 38991   0.0336 266.4517 0002465  62.0420 264.9848  1.00271252 15766
EUTELSAT 21B            
1 38992U 12062B   17054.51343366  .00000120  00000-0  00000-0 0  9993
2 38992   0.0673  13.4925 0002459 324.9237  21.5516  1.00272232 15761
ECHOSTAR 16             
1 39008U 12065A   17054.74352704 -.00000292  00000-0  00000+0 0  9996
2 39008   0.0041 178.0140 0002021 151.7801  30.1724  1.00271646 15714
CHINASAT 12 (ZX 12)     
1 39017U 12067A   17054.84609748 -.00000217  00000-0  00000-0 0  9990
2 39017   0.0125 103.1472 0002573 242.6963 200.1565  1.00272049 15412
EUTELSAT 70B            
1 39020U 12069A   17054.37789082 -.00000053  00000-0  00000-0 0  9992
2 39020   0.0752 328.1441 0002332 338.2757  53.5367  1.00271327 15411
YAMAL 402               
1 39022U 12070A   17054.61207051  .00000076  00000-0  10000-3 0  9992
2 39022   0.0159 117.1826 0002925 241.5605  70.1674  1.00273673 15505
SKYNET 5D               
1 39034U 12075A   17055.15188206  .00000090  00000-0  00000+0 0  9991
2 39034   0.0716   7.5484 0003956 334.8214 279.2243  1.00271435 15425
MEXSAT 3                
1 39035U 12075B   17053.89390815 -.00000035  00000-0  00000+0 0  9992
2 39035   0.0527 250.6940 0001426  67.7346  41.5382  1.00272353 15370
TDRS 11                 
1 39070U 13004A   17054.96099776  .00000089  00000-0  00000+0 0  9993
2 39070   5.5388 328.7686 0011249 301.4019  58.5836  1.00275745 14893
AMAZONAS 3              
1 39078U 13006A   17054.74206085 -.00000292  00000-0  00000+0 0  9999
2 39078   0.0474 237.6303 0002355  46.9359  75.3859  1.00271817 14873
AZERSPACE 1             
1 39079U 13006B   17054.44580999  .00000124  00000-0  00000+0 0  9999
2 39079   0.0144 155.4875 0002081 204.0554   0.4569  1.00270514 14835
EUTELSAT 117 WEST A     
1 39122U 13012A   17053.89945992 -.00000022  00000-0  00000+0 0  9999
2 39122   0.0651 282.6300 0002592  54.5879  22.7481  1.00270963 14364
ANIK G1                 
1 39127U 13014A   17054.87041308 -.00000084  00000-0  00000+0 0  9991
2 39127   0.0345 268.5928 0002309  41.2771  50.0881  1.00272239 14162
CHINASAT 11 (ZX 11)     
1 39157U 13020A   17054.91298066 -.00000300  00000-0  00000+0 0  9992
2 39157   0.0303 272.7993 0002669  32.4802 275.3256  1.00269137 14053
EUTELSAT 7B             
1 39163U 13022A   17054.55383122  .00000038  00000-0  00000-0 0  9997
2 39163   0.0493 346.7002 0005528   7.0056   6.2652  1.00272978 13900
SES-6                   
1 39172U 13026A   17054.10205854 -.00000271  00000-0  00000+0 0  9996
2 39172   0.0724 161.0176 0002133 228.2848 120.0729  1.00272715 13620
IRNSS-1A                
1 39199U 13034A   17054.74405332  .00000082  00000-0  00000+0 0  9996
2 39199  28.6349 117.0045 0021601 186.6085 173.4349  1.00281373 13557
ALPHASAT                
1 39215U 13038A   17054.59018393  .00000129  00000-0  00000-0 0  9992
2 39215   1.5986  30.2140 0001758 313.7181  47.0277  1.00274596  9950
INSAT-3D                
1 39216U 13038B   17055.34307579 -.00000166  00000-0  00000+0 0  9995
2 39216   0.0107 143.9822 0001443 185.3964  30.5915  1.00273053 13219
EUTELSAT 25B            
1 39233U 13044A   17054.50252986  .00000133  00000-0  00000-0 0  9993
2 39233   0.0536 347.9666 0001691 350.3321  21.6723  1.00269471 12544
GSAT-7                  
1 39234U 13044B   17054.36804683 -.00000087  00000-0  00000-0 0  9994
2 39234   0.0407 252.7813 0003699  41.1360  66.0220  1.00272693 11260
AMOS-4                  
1 39237U 13045A   17054.39317478 -.00000002  00000-0  00000+0 0  9998
2 39237   0.0390 242.6104 0002598  80.0603  37.2892  1.00271468 12797
ASTRA 2E                
1 39285U 13056A   17054.49422444  .00000140  00000-0  00000-0 0  9997
2 39285   0.0696  46.6511 0002687 287.8888  25.4251  1.00269278 12372
SIRIUS FM-6             
1 39360U 13058A   17054.89498105 -.00000027  00000-0  00000+0 0  9998
2 39360   0.0251  91.7973 0000380  89.4425 178.7386  1.00272983 12252
RADUGA-1M 3             
1 39375U 13062A   17055.08861708 -.00000049  00000-0  00000+0 0  9998
2 39375   0.0174 192.4325 0002484 145.0340 278.5871  1.00273286 12035
SES-8                   
1 39460U 13071A   17055.30731342 -.00000279  00000-0  00000+0 0  9993
2 39460   0.0585 279.7750 0001827  98.8243 341.3858  1.00270885 11781
INMARSAT 5-F1           
1 39476U 13073A   17054.99631693  .00000018  00000-0  00000+0 0  9994
2 39476   0.0146 124.5209 0000239 345.4220 105.3722  1.00272788 11837
TKSAT-1 (TUPAC KATARI)  
1 39481U 13075A   17055.34076089 -.00000205  00000-0  00000+0 0  9993
2 39481   0.0618 303.0790 0002958  26.1974 220.5748  1.00271134 11758
EXPRESS-AM5             
1 39487U 13077A   17054.65003218 -.00000290  00000-0  00000+0 0  9992
2 39487   0.0418 287.0784 0001563 171.0180  69.6399  1.00271308 12271
GSAT-14                 
1 39498U 14001A   17054.36824134 -.00000087  00000-0  00000+0 0  9992
2 39498   0.1077 265.0304 0002895 127.7823 327.1829  1.00272731 11472
THAICOM 6               
1 39500U 14002A   17054.95886140 -.00000132  00000-0  00000-0 0  9999
2 39500   0.0388 144.4538 0000853 250.3395 182.9265  1.00273255 11358
TDRS 12                 
1 39504U 14004A   17054.62141078 -.00000272  00000-0  00000-0 0  9998
2 39504   6.0966 336.2283 0003423 357.0887   3.0049  1.00278456 10186
ABS-2                   
1 39508U 14006A   17054.36568106 -.00000095  00000-0  00000-0 0  9993
2 39508   0.0665 292.8142 0003590  50.1179  17.0337  1.00270524 11219
ATHENA-FIDUS            
1 39509U 14006B   17054.46849230  .00000144  00000-0  00000+0 0  9998
2 39509   0.0188 118.5814 0001157 246.7758 354.6222  1.00274217 11400
